NORAD_CAT_ID,OBJECT_NAME,OBJECT_TYPE,EPOCH,MEAN_MOTION,ECCENTRICITY,INCLINATION,RA_OF_ASC_NODE,ARG_OF_PERICENTER,MEAN_ANOMALY,BSTAR,MEAN_MOTION_DOT,MEAN_MOTION_DDOT,TLE_LINE0,TLE_LINE1,TLE_LINE2,SEMIMAJOR_AXIS,PERIOD,APOGEE,PERIGEE,DECAYED
53554.0,STARLINK-4506,PAYLOAD,2023-04-02 15:06:47,15.0887228,0.0001543,53.215,196.7842,86.9705,273.1464,0.0017573,0.00027815,0.0,0 STARLINK-4506,1 53554U 22101AD  23092.62971081  .00027815  00000-0  17573-2 0  9996,2 53554  53.2150 196.7842 0001543  86.9705 273.1464 15.08872280 34460,6917.782,95.436,540.714,538.579,0.0
53554.0,STARLINK-4506,PAYLOAD,2023-04-03 11:46:47,15.08847763,0.0001247,53.2149,192.9196,96.2406,263.8728,0.0011421,0.00017939,0.0,0 STARLINK-4506,1 53554U 22101AD  23093.49083311  .00017939  00000-0  11421-2 0  9994,2 53554  53.2149 192.9196 0001247  96.2406 263.8728 15.08847763 34592,6917.857,95.437,540.584,538.859,0.0
53554.0,STARLINK-4506,PAYLOAD,2023-04-04 05:16:02,15.08855518,0.0001545,53.2154,189.6493,99.1339,260.9828,0.0011832,0.00018601,0.0,0 STARLINK-4506,1 53554U 22101AD  23094.21947242  .00018601  00000-0  11832-2 0  9990,2 53554  53.2154 189.6493 0001545  99.1339 260.9828 15.08855518 34708,6917.833,95.437,540.767,538.629,0.0
53554.0,STARLINK-4506,PAYLOAD,2023-04-04 11:37:34,15.08855192,0.0001438,53.2152,188.459,97.9294,262.1861,0.00066021,0.00010239,0.0,0 STARLINK-4506,1 53554U 22101AD  23094.48442961  .00010239  00000-0  66021-3 0  9997,2 53554  53.2152 188.4590 0001438  97.9294 262.1861 15.08855192 34741,6917.834,95.437,540.694,538.704,0.0
53554.0,STARLINK-4506,PAYLOAD,2023-04-05 11:28:21,15.08841264,0.0001212,53.2154,183.9984,94.4993,265.6137,7.9971e-05,9.85e-06,0.0,0 STARLINK-4506,1 53554U 22101AD  23095.47803099  .00000985  00000-0  79971-4 0  9996,2 53554  53.2154 183.9984 0001212  94.4993 265.6137 15.08841264 34893,6917.877,95.437,540.58,538.903,0.0
53554.0,STARLINK-4506,PAYLOAD,2023-04-06 11:19:08,15.08844015,0.0001202,53.2148,179.5374,95.8562,264.2568,9.2954e-05,1.192e-05,0.0,0 STARLINK-4506,1 53554U 22101AD  23096.47163086  .00001192  00000-0  92954-4 0  9999,2 53554  53.2148 179.5374 0001202  95.8562 264.2568 15.08844015 35044,6917.868,95.437,540.565,538.902,0.0
53554.0,STARLINK-4506,PAYLOAD,2023-04-06 22:26:50,15.08842013,0.0001129,53.2144,177.4561,92.3397,267.7725,0.00015601,2.196e-05,0.0,0 STARLINK-4506,1 53554U 22101AD  23096.93531205  .00002196  00000-0  15601-3 0  9990,2 53554  53.2144 177.4561 0001129  92.3397 267.7725 15.08842013 35118,6917.874,95.437,540.52,538.958,0.0
53554.0,STARLINK-4506,PAYLOAD,2023-04-07 04:48:23,15.08838334,0.0001207,53.2155,176.2677,93.0254,267.0876,0.00017287,2.464e-05,0.0,0 STARLINK-4506,1 53554U 22101AD  23097.20027490  .00002464  00000-0  17287-3 0  9997,2 53554  53.2155 176.2677 0001207  93.0254 267.0876 15.08838334 35157,6917.885,95.438,540.585,538.915,0.0
53554.0,STARLINK-4506,PAYLOAD,2023-04-07 11:09:56,15.08840064,0.00013,53.2161,175.0778,92.6567,267.4574,0.00017924,2.566e-05,0.0,0 STARLINK-4506,1 53554U 22101AD  23097.46523512  .00002566  00000-0  17924-3 0  9992,2 53554  53.2161 175.0778 0001300  92.6567 267.4574 15.08840064 35195,6917.88,95.438,540.645,538.846,0.0
53554.0,STARLINK-4506,PAYLOAD,2023-04-08 11:00:43,15.08845429,0.0001468,53.2158,170.6168,100.056,260.0598,0.00011033,1.469e-05,0.0,0 STARLINK-4506,1 53554U 22101AD  23098.45883176  .00001469  00000-0  11033-3 0  9993,2 53554  53.2158 170.6168 0001468 100.0560 260.0598 15.08845429 35349,6917.864,95.437,540.744,538.713,0.0
53554.0,STARLINK-4506,PAYLOAD,2023-04-09 09:16:07,15.08841341,0.0001505,53.2146,166.4533,90.1483,269.9681,9.2393e-05,1.183e-05,0.0,0 STARLINK-4506,1 53554U 22101AD  23099.38619373  .00001183  00000-0  92393-4 0  9994,2 53554  53.2146 166.4533 0001505  90.1483 269.9681 15.08841341 35485,6917.876,95.437,540.782,538.7,0.0
53554.0,STARLINK-4506,PAYLOAD,2023-04-09 10:51:30,15.08841665,0.0001376,53.2145,166.1558,96.2442,263.8707,7.7109e-05,9.4e-06,0.0,0 STARLINK-4506,1 53554U 22101AD  23099.45243293  .00000940  00000-0  77109-4 0  9994,2 53554  53.2145 166.1558 0001376  96.2442 263.8707 15.08841665 35498,6917.875,95.437,540.692,538.788,0.0
53554.0,STARLINK-4506,PAYLOAD,2023-04-10 07:31:31,15.0884126,0.0001335,53.2147,162.2896,92.6166,267.4979,5.1643e-05,5.34e-06,0.0,0 STARLINK-4506,1 53554U 22101AD  23100.31355417  .00000534  00000-0  51643-4 0  9998,2 53554  53.2147 162.2896 0001335  92.6166 267.4979 15.08841260 35627,6917.877,95.437,540.665,538.818,0.0
53554.0,STARLINK-4506,PAYLOAD,2023-04-11 10:33:16,15.08684418,0.0001622,53.2151,157.2374,119.722,240.3934,-0.0012389,-0.00019867,0.0,0 STARLINK-4506,1 53554U 22101AD  23101.43977243 -.00019867  00000-0 -12389-2 0  9992,2 53554  53.2151 157.2374 0001622 119.7220 240.3934 15.08684418 35797,6918.356,95.447,541.343,539.099,0.0
53554.0,STARLINK-4506,PAYLOAD,2023-04-11 20:05:52,15.0849868,0.0001653,53.2152,155.4519,85.5333,274.5848,-0.0026412,-0.00041691,0.0,0 STARLINK-4506,1 53554U 22101AD  23101.83741873 -.00041691  00000-0 -26412-2 0  9996,2 53554  53.2152 155.4519 0001653  85.5333 274.5848 15.08498680 35852,6918.924,95.459,541.933,539.645,0.0
53554.0,STARLINK-4506,PAYLOAD,2023-04-12 04:03:03,15.08372404,0.0001373,53.215,153.9642,100.8657,259.249,-0.0034711,-0.00054415,0.0,0 STARLINK-4506,1 53554U 22101AD  23102.16879563 -.00054415  00000-0 -34711-2 0  9990,2 53554  53.2150 153.9642 0001373 100.8657 259.2490 15.08372404 35903,6919.31,95.467,542.125,540.225,0.0
53554.0,STARLINK-4506,PAYLOAD,2023-04-12 10:24:44,15.08340355,0.0001447,53.2151,152.7768,95.9103,264.2053,-0.0035029,-0.0005486,0.0,0 STARLINK-4506,1 53554U 22101AD  23102.43385150 -.00054860  00000-0 -35029-2 0  9991,2 53554  53.2151 152.7768 0001447  95.9103 264.2053 15.08340355 35947,6919.408,95.469,542.274,540.272,0.0
53554.0,STARLINK-4506,PAYLOAD,2023-04-13 10:15:43,15.08490187,0.0001529,53.216,148.319,77.9402,282.1761,-0.00038516,-6.353e-05,0.0,0 STARLINK-4506,1 53554U 22101AD  23103.42758698 -.00006353  00000-0 -38516-3 0  9991,2 53554  53.2160 148.3190 0001529  77.9402 282.1761 15.08490187 36091,6918.95,95.46,541.873,539.757,0.0
53554.0,STARLINK-4506,PAYLOAD,2023-04-13 11:51:06,15.08507477,0.0001518,53.216,148.0212,86.9102,273.2064,-0.00020887,-3.58e-05,0.0,0 STARLINK-4506,1 53554U 22101AD  23103.49382881 -.00003580  00000-0 -20887-3 0  9996,2 53554  53.2160 148.0212 0001518  86.9102 273.2064 15.08507477 36108,6918.897,95.459,541.812,539.712,0.0
53554.0,STARLINK-4506,PAYLOAD,2023-04-13 19:48:01,15.08575024,0.0001039,53.2157,146.5346,117.0084,243.1015,0.0014034,0.00021956,0.0,0 STARLINK-4506,1 53554U 22101AD  23103.82502037  .00021956  00000-0  14034-2 0  9991,2 53554  53.2157 146.5346 0001039 117.0084 243.1015 15.08575024 36158,6918.69,95.454,541.274,539.837,0.0
53554.0,STARLINK-4506,PAYLOAD,2023-04-14 11:42:05,15.08541675,0.0001925,53.2148,143.5603,84.7912,275.33,0.0036371,0.00057597,0.0,0 STARLINK-4506,1 53554U 22101AD  23104.48756666  .00057597  00000-0  36371-2 0  9991,2 53554  53.2148 143.5603 0001925  84.7912 275.3300 15.08541675 36255,6918.792,95.456,541.989,539.326,0.0
53554.0,STARLINK-4506,PAYLOAD,2023-04-15 09:57:38,15.08764613,0.0002137,53.2146,139.3982,88.8106,271.3131,0.0024977,0.00039605,0.0,0 STARLINK-4506,1 53554U 22101AD  23105.41503453  .00039605  00000-0  24977-2 0  9998,2 53554  53.2146 139.3982 0002137  88.8106 271.3131 15.08764613 36394,6918.111,95.442,541.454,538.497,0.0
53554.0,STARLINK-4506,PAYLOAD,2023-04-15 14:43:47,15.08799514,0.0002022,53.2146,138.5059,87.2857,272.8367,0.0019976,0.00031612,0.0,0 STARLINK-4506,1 53554U 22101AD  23105.61374363  .00031612  00000-0  19976-2 0  9999,2 53554  53.2146 138.5059 0002022  87.2857 272.8367 15.08799514 36428,6918.004,95.44,541.268,538.47,0.0
53554.0,STARLINK-4506,PAYLOAD,2023-04-16 01:51:27,15.08834634,0.0001994,53.2144,136.4243,81.8954,278.2264,6.3797e-05,7.27e-06,0.0,0 STARLINK-4506,1 53554U 22101AD  23106.07740566  .00000727  00000-0  63797-4 0  9997,2 53554  53.2144 136.4243 0001994  81.8954 278.2264 15.08834634 36499,6917.897,95.438,541.141,538.382,0.0
53554.0,STARLINK-4506,PAYLOAD,2023-04-16 08:13:00,15.08840083,0.0002164,53.214,135.2345,97.5158,262.608,9.7326e-05,1.261e-05,0.0,0 STARLINK-4506,1 53554U 22101AD  23106.34236171  .00001261  00000-0  97326-4 0  9998,2 53554  53.2140 135.2345 0002164  97.5158 262.6080 15.08840083 36538,6917.88,95.438,541.242,538.248,0.0
53554.0,STARLINK-4506,PAYLOAD,2023-04-16 19:20:41,15.08845182,0.0002129,53.2139,133.1535,91.3663,268.7573,0.00020655,3.001e-05,0.0,0 STARLINK-4506,1 53554U 22101AD  23106.80604108  .00003001  00000-0  20655-3 0  9992,2 53554  53.2139 133.1535 0002129  91.3663 268.7573 15.08845182 36605,6917.865,95.437,541.202,538.257,0.0
53554.0,STARLINK-4506,PAYLOAD,2023-04-17 08:03:46,15.08846096,0.0002063,53.2141,130.7739,95.9121,264.2106,0.00027339,4.066e-05,0.0,0 STARLINK-4506,1 53554U 22101AD  23107.33596043  .00004066  00000-0  27339-3 0  9997,2 53554  53.2141 130.7739 0002063  95.9121 264.2106 15.08846096 36689,6917.862,95.437,541.154,538.3,0.0
53554.0,STARLINK-4506,PAYLOAD,2023-04-18 06:19:11,15.0883837,0.0002039,53.214,126.6103,96.6738,263.4486,8.0941e-05,1e-05,0.0,0 STARLINK-4506,1 53554U 22101AD  23108.26332403  .00001000  00000-0  80941-4 0  9992,2 53554  53.2140 126.6103 0002039  96.6738 263.4486 15.08838370 36826,6917.885,95.438,541.161,538.34,0.0
53554.0,STARLINK-4506,PAYLOAD,2023-04-19 06:09:58,15.08839823,0.000198,53.2142,122.1502,95.6546,264.4672,8.777e-05,1.109e-05,0.0,0 STARLINK-4506,1 53554U 22101AD  23109.25692526  .00001109  00000-0  87770-4 0  9994,2 53554  53.2142 122.1502 0001980  95.6546 264.4672 15.08839823 36970,6917.881,95.438,541.116,538.376,0.0
53554.0,STARLINK-4506,PAYLOAD,2023-04-19 17:17:40,15.0883832,0.0002029,53.2148,120.0681,100.474,259.6481,8.3941e-05,1.048e-05,0.0,0 STARLINK-4506,1 53554U 22101AD  23109.72060607  .00001048  00000-0  83941-4 0  9993,2 53554  53.2148 120.0681 0002029 100.4740 259.6481 15.08838320 37041,6917.886,95.438,541.154,538.347,0.0
